IRIDIUM 63              
1 25286U 98021B   25080.55016780  .00000898  00000+0  30006-3 0  9996
2 25286  86.3954 118.9109 0002238  96.2521 263.8931 14.36432820411268
IRIDIUM 69              
1 25319U 98026A   25080.55325353  .00001220  00000+0  37489-3 0  9999
2 25319  86.3978 132.4607 0001571  22.9607 337.1662 14.40834382410444
IRIDIUM 71              
1 25320U 98026B   25080.84973988  .00001112  00000+0  33964-3 0  9990
2 25320  86.3963 127.0433 0003457  55.6604 304.4922 14.41040550411266
IRIDIUM 73              
1 25344U 98032C   25080.51871839  .00001872  00000+0  46344-3 0  9998
2 25344  86.4356  84.0568 0001809  82.0825 278.0586 14.51524531417847
IRIDIUM 82              
1 25467U 98051A   25080.24440874  .00038270  00000+0  12761-2 0  9993
2 25467  86.3727 152.8007 0092730 268.8352  90.2270 15.26784676410510
